{"spkid": "50604640", "covariance": {"labels": ["e", "q", "tp", "node", "peri", "i"], "data": [["6.080653559144034E-16", "-7.53792146296418E-16", "6.546550204156281E-13", "3.353602640790693E-14", "6.557865806317667E-13", "2.657226857612133E-14"], ["-7.53792146296418E-16", "9.345331650567828E-16", "-8.107376888346205E-13", "-4.048753020265998E-14", "-8.134699502450264E-13", "-3.304687868936391E-14"], ["6.546550204156281E-13", "-8.107376888346205E-13", "7.620693255798725E-10", "4.724651980885832E-11", "7.499503324658937E-10", "3.112842133350033E-11"], ["3.353602640790693E-14", "-4.048753020265998E-14", "4.724651980885832E-11", "2.737343935576983E-10", "-2.250560547665453E-10", "-3.423576640325571E-13"], ["6.557865806317667E-13", "-8.134699502450264E-13", "7.499503324658937E-10", "-2.250560547665453E-10", "1.011613851643582E-9", "3.287638991969367E-11"], ["2.657226857612133E-14", "-3.304687868936391E-14", "3.112842133350033E-11", "-3.423576640325571E-13", "3.287638991969367E-11", "7.373928234600917E-12"]], "elements": [{"name": "e", "sigma": 2.46589812424277e-08, "units": null, "title": "eccentricity", "value": ".1976189821058988", "label": "e"}, {"title": "perihelion distance", "value": "1.004078907849696", "units": "au", "sigma": 3.05701351821804e-08, "name": "q", "label": "q"}, {"label": "tp", "sigma": 2.76056031555167e-05, "name": "tp", "units": "TDB", "value": "2458643.987336520042", "title": "time of perihelion passage"}, {"sigma": 1.65449204760161e-05, "name": "om", "units": "deg", "title": "longitude of the ascending node", "value": "235.678709193888", "label": "node"}, {"label": "peri", "name": "w", "sigma": 3.18058776273126e-05, "units": "deg", "title": "argument of perihelion", "value": "25.18794853975157"}, {"units": "deg", "title": "inclination", "value": "1.716303080412003", "sigma": 2.71549778762586e-06, "name": "i", "label": "i"}], "epoch": "2458436.5"}, "elements": [{"name": "e", "sigma": "2.3786E-8", "value": ".191659724019384", "title": "eccentricity", "units": null, "label": "e"}, {"label": "a", "name": "a", "sigma": "1.1657E-8", "value": "1.239437784586875", "title": "semi-major axis", "units": "au"}, {"label": "q", "sigma": "3.2892E-8", "name": "q", "units": "au", "value": "1.001887480853758", "title": "perihelion distance"}, {"label": "i", "name": "i", "sigma": "2.6632E-6", "units": "deg", "value": "1.709582382656131", "title": "inclination; angle with respect to x-y ecliptic plane"}, {"label": "node", "units": "deg", "title": "longitude of the ascending node", "value": "235.2618632510987", "sigma": "1.6736E-5", "name": "om"}, {"units": "deg", "title": "argument of perihelion", "value": "27.16605971553799", "sigma": "3.2666E-5", "name": "w", "label": "peri"}, {"label": "M", "title": "mean anomaly", "value": "25.02239692502331", "units": "deg", "name": "ma", "sigma": "2.4207E-5"}, {"label": "tp", "sigma": "3.356E-5", "name": "tp", "units": "TDB", "title": "time of perihelion passage", "value": "2461165.468241971666"}, {"title": "sidereal orbital period", "value": "504.0057884138311", "units": "d", "sigma": "7.1102E-6", "name": "per", "label": "period"}, {"label": "n", "name": "n", "sigma": "1.0077E-8", "title": "mean motion", "value": ".7142775108455892", "units": "deg/d"}, {"label": "Q", "value": "1.476988088319993", "title": "aphelion distance", "units": "au", "sigma": "1.3891E-8", "name": "ad"}], "epoch": "2461200.5"}